[Satellite]
VERSION=1.1
NAME=NEOSSAT
NICKNAME=OAE01---Oficina_de_Asuntos_Extraterestres
TLE1=1 39089U 13009D   15055.15022402  .00000175  00000-0  78144-4 0  9995
TLE2=2 39089  98.6096 253.4110 0009996 276.0235  83.9810 14.34196750104401
